CCSDS_OEM_VERS = 1.0
CREATION_DATE  = 2017-05-11T12:02:56
ORIGINATOR     = GMAT USER

META_START
OBJECT_NAME          = MOPSSat_alt_35785_km_RAAN_270_120
OBJECT_ID            = SatId
CENTER_NAME          = Earth
REF_FRAME            = EME2000
TIME_SYSTEM          = UTC
START_TIME           = 2017-01-01T00:00:00.000
USEABLE_START_TIME   = 2017-01-01T00:00:00.000
USEABLE_STOP_TIME    = 2017-01-02T00:00:00.000
STOP_TIME            = 2017-01-02T00:00:00.000
INTERPOLATION        = Lagrange
INTERPOLATION_DEGREE = 7 
META_STOP


                                                                                   

2017-01-01T21:32:30.000  -3.031195455863449e+04  -1.507572551168897e+04   2.388872098560533e+00   2.401610452902294e+00  -2.885574242969743e+00  -7.515521576454766e-05
2017-01-01T21:32:40.000  -3.028792288280025e+04  -1.510457350318508e+04   2.388119349092831e+00   2.404724626958422e+00  -2.884023275979104e+00  -7.539469909979646e-05
2017-01-01T21:32:50.000  -3.026386006559334e+04  -1.513340596429703e+04   2.387364204081893e+00   2.407838716024444e+00  -2.882468153131434e+00  -7.563432403827295e-05
2017-01-01T21:33:00.000  -3.023976610800174e+04  -1.516222285331836e+04   2.386606662116426e+00   2.410952714242605e+00  -2.880908870910651e+00  -7.587409031444264e-05
2017-01-01T21:33:10.000  -3.021564101107400e+04  -1.519102412850505e+04   2.385846721787858e+00   2.414066615740606e+00  -2.879345425807627e+00  -7.611399766160477e-05
2017-01-01T21:33:20.000  -3.019148477583416e+04  -1.521980974817912e+04   2.385084381687715e+00   2.417180414642718e+00  -2.877777814314785e+00  -7.635404581272772e-05
2017-01-01T21:33:30.000  -3.016729740333809e+04  -1.524857967065942e+04   2.384319640409329e+00   2.420294105062362e+00  -2.876206032929689e+00  -7.659423449989855e-05
2017-01-01T21:33:40.000  -3.014307889467398e+04  -1.527733385426181e+04   2.383552496547891e+00   2.423407681102092e+00  -2.874630078155139e+00  -7.683456345431275e-05
2017-01-01T21:33:50.000  -3.011882925090344e+04  -1.530607225736716e+04   2.382782948698529e+00   2.426521136861012e+00  -2.873049946495298e+00  -7.707503240687582e-05
2017-01-01T21:34:00.000  -3.009454847314925e+04  -1.533479483831910e+04   2.382010995459133e+00   2.429634466423641e+00  -2.871465634461487e+00  -7.731564108731231e-05
2017-01-01T21:34:10.000  -3.007023656260444e+04  -1.536350155541382e+04   2.381236635430668e+00   2.432747663858773e+00  -2.869877138572849e+00  -7.755638922408532e-05
2017-01-01T21:34:20.000  -3.004589352055476e+04  -1.539219236687051e+04   2.380459867217799e+00   2.435860723216375e+00  -2.868284455357705e+00  -7.779727654413551e-05
2017-01-01T21:34:30.000  -3.002151934840045e+04  -1.542086723080981e+04   2.379680689429716e+00   2.438973638525091e+00  -2.866687581355197e+00  -7.803830277270442e-05
2017-01-01T21:34:40.000  -2.999711404758403e+04  -1.544952610533760e+04   2.378899100677767e+00   2.442086403801396e+00  -2.865086513110504e+00  -7.827946763403535e-05
2017-01-01T21:34:50.000  -2.997267761991485e+04  -1.547816894816911e+04   2.378115099586014e+00   2.445199013008583e+00  -2.863481247196406e+00  -7.852077084820848e-05
2017-01-01T21:35:00.000  -2.994821006717659e+04  -1.550679571708502e+04   2.377328684778529e+00   2.448311460106446e+00  -2.861871780187359e+00  -7.876221213497475e-05
2017-01-01T21:35:10.000  -2.992371139127313e+04  -1.553540636976175e+04   2.376539854884108e+00   2.451423739032798e+00  -2.860258108669147e+00  -7.900379121232916e-05
2017-01-01T21:35:20.000  -2.989918159366553e+04  -1.556400086442985e+04   2.375748608518160e+00   2.454535843775054e+00  -2.858640229201870e+00  -7.924550780203540e-05
2017-01-01T21:35:30.000  -2.987462067593351e+04  -1.559257915921729e+04   2.374954944300778e+00   2.457647768298813e+00  -2.857018138356926e+00  -7.948736162411277e-05
2017-01-01T21:35:40.000  -2.985002863964913e+04  -1.562114121229865e+04   2.374158860852692e+00   2.460759506564040e+00  -2.855391832708765e+00  -7.972935239807664e-05
2017-01-01T21:35:50.000  -2.982540548669102e+04  -1.564968698152305e+04   2.373360356805272e+00   2.463871052484735e+00  -2.853761308855421e+00  -7.997147983985058e-05
2017-01-01T21:36:00.000  -2.980075121901253e+04  -1.567821642469112e+04   2.372559430793215e+00   2.466982399958864e+00  -2.852126563403520e+00  -8.021374366404270e-05
2017-01-01T21:36:10.000  -2.977606583864004e+04  -1.570672949955423e+04   2.371756081454433e+00   2.470093542868355e+00  -2.850487592968094e+00  -8.045614358396208e-05
2017-01-01T21:36:20.000  -2.975134934791477e+04  -1.573522616354254e+04   2.370950307438102e+00   2.473204475049204e+00  -2.848844394188952e+00  -8.069867930923825e-05
2017-01-01T21:36:30.000  -2.972660174916913e+04  -1.576370637413232e+04   2.370142107393972e+00   2.476315190331733e+00  -2.847196963708964e+00  -8.094135054900578e-05
2017-01-01T21:36:40.000  -2.970182304485396e+04  -1.579217008870106e+04   2.369331479976553e+00   2.479425682524715e+00  -2.845545298182625e+00  -8.118415701065044e-05
2017-01-01T21:36:50.000  -2.967701323697957e+04  -1.582061726517001e+04   2.368518423826847e+00   2.482535945485580e+00  -2.843889394238835e+00  -8.142709840531565e-05
2017-01-01T21:37:00.000  -2.965217232767471e+04  -1.584904786136163e+04   2.367702937590622e+00   2.485645973050196e+00  -2.842229248518178e+00  -8.167017444239369e-05
2017-01-01T21:37:10.000  -2.962730031906083e+04  -1.587746183514532e+04   2.366885019914330e+00   2.488755759048753e+00  -2.840564857664621e+00  -8.191338483077049e-05
2017-01-01T21:37:20.000  -2.960239721357016e+04  -1.590585914406713e+04   2.366064669455386e+00   2.491865297265440e+00  -2.838896218346538e+00  -8.215672927566326e-05
2017-01-01T21:37:30.000  -2.957746301371101e+04  -1.593423974562548e+04   2.365241884874655e+00   2.494974581468385e+00  -2.837223327241355e+00  -8.240020748096739e-05
2017-01-01T21:37:40.000  -2.955249772206632e+04  -1.596260359727024e+04   2.364416664836334e+00   2.498083605409633e+00  -2.835546181035374e+00  -8.264381914925160e-05
2017-01-01T21:37:50.000  -2.952750134153786e+04  -1.599095065613238e+04   2.363589008016214e+00   2.501192362795279e+00  -2.833864776440502e+00  -8.288756397942445e-05
2017-01-01T21:38:00.000  -2.950247387501916e+04  -1.601928087938926e+04   2.362758913090703e+00   2.504300847325709e+00  -2.832179110172047e+00  -8.313144166987620e-05
2017-01-01T21:38:10.000  -2.947741532552658e+04  -1.604759422411780e+04   2.361926378741214e+00   2.507409052679429e+00  -2.830489178957640e+00  -8.337545191721549e-05
2017-01-01T21:38:20.000  -2.945232569562445e+04  -1.607589064794426e+04   2.361091403635073e+00   2.510516972584386e+00  -2.828794979498507e+00  -8.361959442184147e-05
2017-01-01T21:38:30.000  -2.942720498800138e+04  -1.610417010839285e+04   2.360253986444659e+00   2.513624600746463e+00  -2.827096508508354e+00  -8.386386888235436e-05
2017-01-01T21:38:40.000  -2.940205320532193e+04  -1.613243256305414e+04   2.359414125842504e+00   2.516731930867935e+00  -2.825393762703436e+00  -8.410827499699435e-05
2017-01-01T21:38:50.000  -2.937687035062492e+04  -1.616067796913197e+04   2.358571820514435e+00   2.519838956597821e+00  -2.823686738829308e+00  -8.435281245976694e-05
2017-01-01T21:39:00.000  -2.935165642699556e+04  -1.618890628381779e+04   2.357727069148798e+00   2.522945671572850e+00  -2.821975433638922e+00  -8.459748096363399e-05
2017-01-01T21:39:10.000  -2.932641143764113e+04  -1.621711746420445e+04   2.356879870438947e+00   2.526052069408017e+00  -2.820259843897720e+00  -8.484228019977531e-05
2017-01-01T21:39:20.000  -2.930113538586371e+04  -1.624531146732068e+04   2.356030223082436e+00   2.529158143700259e+00  -2.818539966381983e+00  -8.508720985786666e-05
2017-01-01T21:39:30.000  -2.927582827504432e+04  -1.627348825014602e+04   2.355178125780423e+00   2.532263888030170e+00  -2.816815797877668e+00  -8.533226962621891e-05
2017-01-01T21:39:40.000  -2.925049010861290e+04  -1.630164776964465e+04   2.354323577236651e+00   2.535369295965720e+00  -2.815087335178411e+00  -8.557745919207297e-05
2017-01-01T21:39:50.000  -2.922512089003600e+04  -1.632978998278223e+04   2.353466576157142e+00   2.538474361064010e+00  -2.813354575084849e+00  -8.582277824171008e-05
2017-01-01T21:40:00.000  -2.919972062278496e+04  -1.635791484655788e+04   2.352607121249016e+00   2.541579076874902e+00  -2.811617514402339e+00  -8.606822646076776e-05
2017-01-01T21:40:10.000  -2.917428931041405e+04  -1.638602231791942e+04   2.351745211223188e+00   2.544683436931596e+00  -2.809876149946402e+00  -8.631380353348037e-05
2017-01-01T21:40:20.000  -2.914882695622249e+04  -1.641411235413196e+04   2.350880844782784e+00   2.547787434791491e+00  -2.808130478519415e+00  -8.655950914595444e-05
2017-01-01T21:40:30.000  -2.912333356366364e+04  -1.644218491233101e+04   2.350014020637150e+00   2.550891063986664e+00  -2.806380496938873e+00  -8.680534298220414e-05
2017-01-01T21:40:40.000  -2.909780913619097e+04  -1.647023994969169e+04   2.349144737496604e+00   2.553994318042580e+00  -2.804626202026835e+00  -8.705130472564590e-05
2017-01-01T21:40:50.000  -2.907225367785459e+04  -1.649827742277270e+04   2.348272994092749e+00   2.557097190405538e+00  -2.802867590650948e+00  -8.729739405331525e-05
2017-01-01T21:41:00.000  -2.904666719270528e+04  -1.652629728817271e+04   2.347398789158202e+00   2.560199674515238e+00  -2.801104659683549e+00  -8.754361064164543e-05
2017-01-01T21:41:10.000  -2.902104968494812e+04  -1.655429950236083e+04   2.346522121431821e+00   2.563301763786033e+00  -2.799337406012262e+00  -8.778995416497186e-05
2017-01-01T21:41:20.000  -2.899540115853710e+04  -1.658228402212590e+04   2.345642989644992e+00   2.566403451656519e+00  -2.797565826512295e+00  -8.803642429948152e-05
2017-01-01T21:41:30.000  -2.896972161750944e+04  -1.661025080420553e+04   2.344761392532920e+00   2.569504731548607e+00  -2.795789918069316e+00  -8.828302071994733e-05
